OBJECT_NAME,OBJECT_ID,EPOCH,MEAN_MOTION,ECCENTRICITY,INCLINATION,RA_OF_ASC_NODE,ARG_OF_PERICENTER,MEAN_ANOMALY,EPHEMERIS_TYPE,CLASSIFICATION_TYPE,NORAD_CAT_ID,ELEMENT_SET_NO,REV_AT_EPOCH,BSTAR,MEAN_MOTION_DOT,MEAN_MOTION_DDOT
CUBEBUG-2 (LO-74),2013-066AA,2026-06-24T03:55:32.664000,14.93813506,.00577884,97.8904,124.1710,6.1369,354.0545,0,U,39440,999,67803,.30264617E-3,.3255E-4,0
FUNCUBE-1 (AO-73),2013-066AE,2026-06-23T11:40:32.939904,15.09547873,.00363207,97.8270,146.0634,179.4025,180.7253,0,U,39444,999,68061,.29948666E-3,.4811E-4,0
UWE-3,2013-066AG,2026-06-23T19:59:08.622816,14.97073410,.00468826,97.8705,130.9512,298.7267,60.9247,0,U,39446,999,67857,.33997423E-3,.3944E-4,0
UNISAT-6,2014-033C,2026-06-24T23:59:27.861792,14.88280483,.0045836,97.7883,328.5744,44.1963,316.2900,0,U,40012,999,64732,.25553E-3,.2351E-4,0
DUCHIFAT-1,2014-033M,2026-06-24T02:49:57.853344,15.65879628,.00018584,98.0460,235.2586,108.0960,252.0500,0,U,40021,999,65683,.10096818E-2,.103515E-2,0
QB50P1,2014-033R,2026-06-24T23:49:26.123808,15.18365172,.0008613,98.0964,187.6859,187.2704,172.8404,0,U,40025,999,65421,.43065E-3,.8784E-4,0
LILACSAT-2,2015-049K,2026-06-25T03:22:17.933376,15.51686131,.000621,97.4643,213.2849,209.2685,150.8220,0,U,40908,999,59698,.35297E-3,.20939E-3,0
FOX-1A (AO-85),2015-058D,2026-06-23T22:13:10.891200,14.90994015,.01308506,64.7750,258.0417,53.9672,307.3482,0,U,40967,999,11457,.15604053E-3,.164E-4,0
CAS-2T & KS-1Q,2016-066G,2026-06-25T03:16:11.847072,14.44718370,.034289,98.3820,251.7817,105.4461,258.4874,0,U,41847,999,50594,.22586E-3,.1565E-4,0
RADFXSAT (FOX-1B),2017-073E,2026-06-25T03:29:23.108640,15.12819327,.0148683,97.4699,43.1975,301.5265,57.1515,0,U,43017,999,46659,.34436E-3,.7866E-4,0
DIWATA-2B,2018-084H,2026-06-25T04:08:09.180672,15.00483056,.0012976,98.1205,12.7285,145.0195,215.1883,0,U,43678,999,41741,.15648E-3,.1908E-4,0
ES'HAIL 2,2018-090A,2026-06-25T04:09:59.098752,1.00273828,.0002159,0.0179,335.8396,153.6353,232.1349,0,U,43700,999,2775,0,.154E-5,0
FOX-1CLIFF (AO-95),2018-099N,2026-06-25T03:20:11.416992,15.26862763,.0007228,97.4384,236.3562,326.7898,33.2886,0,U,43770,999,41443,.49535E-3,.13017E-3,0
ITASAT,2018-099AE,2026-06-25T02:58:11.932608,15.19145162,.0011297,97.4030,227.4770,331.0852,28.9756,0,U,43786,999,41411,.3461E-3,.7218E-4,0
JY1SAT (JO-97),2018-099AX,2026-06-25T02:53:27.558240,15.33882017,.0004923,97.4134,238.9829,226.5613,133.5221,0,U,43803,999,41484,.63898E-3,.20902E-3,0
UWE-4,2018-111E,2026-06-24T01:47:26.613312,15.46500339,.00044861,97.5841,103.7842,307.8238,52.2604,0,U,43880,999,41184,.61682984E-3,.30603E-3,0
TIANYAN 01,2019-093C,2026-06-25T04:32:56.861664,14.86529248,.0014996,97.7532,248.2269,63.1588,297.1159,0,U,44881,999,35260,.36202E-4,.268E-5,0
RS-44 & BREEZE-KM R/B,2019-096E,2026-06-24T23:30:44.352864,12.79748967,.0218424,82.5224,334.5259,126.0184,236.1380,0,U,44909,999,30334,.72192E-4,.31E-6,0
SALSAT,2020-068K,2026-06-24T23:51:59.462208,15.29898993,.0007812,97.8853,179.5347,274.8629,85.1718,0,U,46495,999,31655,.27767E-3,.7962E-4,0
XW-3 (CAS-9),2021-131B,2026-06-25T04:14:21.631200,14.41363656,.0005371,98.4980,268.5231,78.1265,282.0526,0,U,50466,999,23626,.13963E-3,.408E-5,0
GREENCUBE (IO-117),2022-080E,2026-06-23T17:18:16.788960,6.42583215,.00089266,70.1445,295.9726,288.1418,71.8270,0,U,53109,999,9248,0,-.3E-7,0
UMKA 1 (RS40S),2023-091G,2026-06-25T04:28:45.124896,15.20901948,.0014329,97.5051,234.8530,92.9659,267.3216,0,U,57172,999,16522,.33652E-3,.7392E-4,0
CUBESX-HSE 3 (RS42S),2023-091N,2026-06-25T03:30:19.759392,15.31397345,.0011659,97.5093,241.8342,69.9783,290.2712,0,U,57178,999,16564,.54528E-3,.16506E-3,0
MONITOR-3 (RS58S),2023-091Q,2026-06-25T04:30:59.824224,15.27989233,.0012829,97.5086,239.6932,76.0743,284.1922,0,U,57180,999,16551,.49761E-3,.13555E-3,0
MONITOR-4 (RS57S),2023-091S,2026-06-25T04:00:11.848320,15.28073885,.001286,97.5080,239.6432,76.4224,283.8447,0,U,57182,999,16551,.46339E-3,.12649E-3,0
MONITOR-2 (RS39S),2023-091U,2026-06-25T03:39:00.190656,15.18977804,.0012754,97.5073,234.3835,87.0152,273.2541,0,U,57184,999,16516,.26148E-3,.541E-4,0
SVYATOBOR 1 (RS60S),2023-091X,2026-06-25T04:28:59.636640,15.26739485,.0010612,97.5091,240.0482,70.2976,289.9407,0,U,57187,999,16553,.42724E-3,.11182E-3,0
VIZARD-METEO (RS38S),2023-091Z,2026-06-25T03:50:16.300896,15.36256949,.0007704,97.5094,245.8054,53.3791,306.8160,0,U,57189,999,16591,.58426E-3,.20615E-3,0
POLYTECH-UNIVERSE 3 (RS46S),2023-091AB,2026-06-25T04:16:38.724672,15.19182311,.001708,97.5049,233.9137,101.5362,258.7791,0,U,57191,999,16516,.29626E-3,.6187E-4,0
UTMN 2 (RS27S),2023-091AP,2026-06-25T03:49:24.655296,15.32228623,.0008788,97.5090,243.4911,59.7335,300.4775,0,U,57203,999,16576,.48674E-3,.15097E-3,0
