CUBEBUG-2 (LO-74)
1 39440U 13066AA  26175.16357250  .00003255  00000-0  30265-3 0  9990
2 39440  97.8904 124.1710 0057788   6.1369 354.0545 14.93813506678035
FUNCUBE-1 (AO-73)
1 39444U 13066AE  26174.48649236  .00004811  00000-0  29949-3 0  9992
2 39444  97.8270 146.0634 0036321 179.4025 180.7253 15.09547873680612
UWE-3
1 39446U 13066AG  26174.83273869  .00003944  00000-0  33997-3 0  9992
2 39446  97.8705 130.9512 0046883 298.7267  60.9247 14.97073410678572
UNISAT-6
1 40012U 14033C   26175.99962803  .00002351  00000-0  25553-3 0  9999
2 40012  97.7883 328.5744 0045836  44.1963 316.2900 14.88280483647326
DUCHIFAT-1
1 40021U 14033M   26175.11803071  .00103515  00000-0  10097-2 0  9994
2 40021  98.0460 235.2586 0001858 108.0960 252.0500 15.65879628656832
FUNCUBE-3 (EO-79)
1 40025U 14033R   26175.99266347  .00008784  00000-0  43065-3 0  9997
2 40025  98.0964 187.6859 0008613 187.2704 172.8404 15.18365172654213
LILACSAT-2
1 40908U 15049K   26176.14048534  .00020939  00000-0  35297-3 0  9993
2 40908  97.4643 213.2849 0006210 209.2685 150.8220 15.51686131596988
CAS-2T & KS-1Q
1 41847U 16066G   26176.13624823  .00001565  00000-0  22586-3 0  9997
2 41847  98.3820 251.7817 0342890 105.4461 258.4874 14.44718370505944
FOX-1B (AO-91)
1 43017U 17073E   26176.14540635  .00007866  00000-0  34436-3 0  9993
2 43017  97.4699  43.1975 0148683 301.5265  57.1515 15.12819327466595
FOX-1A (AO-85)
1 40967U 15058D   26174.92582050  .00001640  00000-0  15604-3 0  9996
2 40967  64.7750 258.0417 0130851  53.9672 307.3482 14.90994015114571
DIWATA-2B (PO-101)
1 43678U 18084H   26176.17232848  .00001908  00000-0  15648-3 0  9991
2 43678  98.1205  12.7285 0012976 145.0195 215.1883 15.00483056417417
ESHAIL-2
1 43700U 18090A   26176.17360068  .00000154  00000-0  00000+0 0  9994
2 43700   0.0179 335.8396 0002159 153.6353 232.1349  1.00273828 27759
ITASAT-1
1 43786U 18099AE  26176.12374922  .00007218  00000-0  34610-3 0  9992
2 43786  97.4030 227.4770 0011297 331.0852  28.9756 15.19145162414117
FOX-1CLIFF (AO-95)
1 43770U 18099N   26176.13902103  .00013017  00000-0  49535-3 0  9990
2 43770  97.4384 236.3562 0007228 326.7898  33.2886 15.26862763414439
JY1SAT (JO-97)
1 43803U 18099AX  26176.12045785  .00020902  00000-0  63898-3 0  9999
2 43803  97.4134 238.9829 0004923 226.5613 133.5221 15.33882017414848
UWE-4
1 43880U 18111E   26175.07461358  .00030603  00000-0  61683-3 0  9999
2 43880  97.5841 103.7842 0004486 307.8238  52.2604 15.46500339411840
CAS-6 (TO-108)
1 44881U 19093C   26176.18954701  .00000268  00000-0  36202-4 0  9997
2 44881  97.7532 248.2269 0014996  63.1588 297.1159 14.86529248352602
DOSAAF-85 (RS-44)
1 44909U 19096E   26175.97968001  .00000031  00000-0  72192-4 0  9991
2 44909  82.5224 334.5259 0218424 126.0184 236.1380 12.79748967303341
SALSAT (TUBSAT 22)
1 46495U 20068K   26175.99443822  .00007962  00000-0  27767-3 0  9992
2 46495  97.8853 179.5347 0007812 274.8629  85.1718 15.29898993316555
CAMSAT XW-3 (CAS-9)
1 50466U 21131B   26176.17663925  .00000408  00000-0  13963-3 0  9997
2 50466  98.4980 268.5231 0005371  78.1265 282.0526 14.41363656236266
ROBUSTA 1F (MTCUBE-2)
1 53109U 22080E   26174.72102765 -.00000003  00000-0  00000-0 0  9994
2 53109  70.1445 295.9726 0008927 288.1418  71.8270  6.42583215 92483
UMKA-1 (RS40S)
1 57172U 23091G   26176.18663339  .00007392  00000-0  33652-3 0  9991
2 57172  97.5051 234.8530 0014329  92.9659 267.3216 15.20901948165227
CUBESX-HSE-3 (RS42S)
1 57178U 23091N   26176.14606203  .00016506  00000-0  54528-3 0  9992
2 57178  97.5093 241.8342 0011659  69.9783 290.2712 15.31397345165647
MONITOR-3 (RS58S)
1 57180U 23091Q   26176.18819241  .00013555  00000-0  49761-3 0  9991
2 57180  97.5086 239.6932 0012829  76.0743 284.1922 15.27989233165516
MONITOR-4 (RS57S)
1 57182U 23091S   26176.16680380  .00012649  00000-0  46339-3 0  9992
2 57182  97.5080 239.6432 0012860  76.4224 283.8447 15.28073885165516
MONITOR-2 (RS39S)
1 57184U 23091U   26176.15208554  .00005410  00000-0  26148-3 0  9996
2 57184  97.5073 234.3835 0012754  87.0152 273.2541 15.18977804165161
SVYATOBOR-1 (RS60S)
1 57187U 23091X   26176.18680135  .00011182  00000-0  42724-3 0  9992
2 57187  97.5091 240.0482 0010612  70.2976 289.9407 15.26739485165531
VIZARD-METEO (RS38S)
1 57189U 23091Z   26176.15991089  .00020615  00000-0  58426-3 0  9991
2 57189  97.5094 245.8054 0007704  53.3791 306.8160 15.36256949165916
UTMN-2 (RS27S)
1 57203U 23091AP  26176.15931314  .00015097  00000-0  48674-3 0  9995
2 57203  97.5090 243.4911 0008788  59.7335 300.4775 15.32228623165761
POLYTECH UNIVERSE-3 (RS46S)
1 57191U 23091AB  26176.17822598  .00006187  00000-0  29626-3 0  9992
2 57191  97.5049 233.9137 0017080 101.5362 258.7791 15.19182311165161
